{
  "type": "FeatureCollection",
  "features": [
    {
      "type": "Feature",
      "properties": {
        "norad_id": 33860,
        "name": "IRIDIUM 33 DEB",
        "group": "iridium-33-debris",
        "lat": -83.68998208390381,
        "lon": -13.440958200819786,
        "alt_km": 672.7977642253172,
        "timestamp": "2025-12-25T19:00:39.735866+00:00",
        "meta_object_name": "IRIDIUM 33 DEB",
        "meta_object_id": "1997-051AD",
        "meta_epoch": "2025-12-25T01:40:13.916928",
        "meta_mean_motion": 14.67512307,
        "meta_eccentricity": 0.00060597,
        "meta_inclination": 86.3823,
        "meta_ra_of_asc_node": 21.779,
        "meta_arg_of_pericenter": 309.0617,
        "meta_mean_anomaly": 111.5218,
        "meta_ephemeris_type": 0,
        "meta_classification_type": "U",
        "meta_norad_cat_id": 33860,
        "meta_element_set_no": 999,
        "meta_rev_at_epoch": 88903,
        "meta_bstar": 0.0011962769,
        "meta_mean_motion_dot": 6.804e-05,
        "meta_mean_motion_ddot": 0,
        "tle_line1": "1 33860U 97051AD  25359.06960552  .00006804  00000+0  11963-2 0  9998",
        "tle_line2": "2 33860  86.3823  21.7790 0006059 309.0617 111.5218 14.67512307889037"
      },
      "geometry": {
        "type": "Point",
        "coordinates": [
          -13.440958200819786,
          -83.68998208390381
        ]
      }
    },
    {
      "type": "Feature",
      "properties": {
        "norad_id": 33862,
        "name": "IRIDIUM 33 DEB",
        "group": "iridium-33-debris",
        "lat": 50.59607894607007,
        "lon": 36.15838878940407,
        "alt_km": 624.4117881968477,
        "timestamp": "2025-12-25T19:00:39.735877+00:00",
        "meta_object_name": "IRIDIUM 33 DEB",
        "meta_object_id": "1997-051AF",
        "meta_epoch": "2025-12-25T02:40:57.384192",
        "meta_mean_motion": 14.69670864,
        "meta_eccentricity": 0.00520966,
        "meta_inclination": 86.4081,
        "meta_ra_of_asc_node": 32.0733,
        "meta_arg_of_pericenter": 27.5778,
        "meta_mean_anomaly": 25.6917,
        "meta_ephemeris_type": 0,
        "meta_classification_type": "U",
        "meta_norad_cat_id": 33862,
        "meta_element_set_no": 999,
        "meta_rev_at_epoch": 89005,
        "meta_bstar": 0.0015857546,
        "meta_mean_motion_dot": 9.663e-05,
        "meta_mean_motion_ddot": 0,
        "tle_line1": "1 33862U 97051AF  25359.11177528  .00009663  00000+0  15858-2 0  9992",
        "tle_line2": "2 33862  86.4081  32.0733 0052096  27.5778  25.6917 14.69670864890050"
      },
      "geometry": {
        "type": "Point",
        "coordinates": [
          36.15838878940407,
          50.59607894607007
        ]
      }
    },
    {
      "type": "Feature",
      "properties": {
        "norad_id": 33866,
        "name": "IRIDIUM 33 DEB",
        "group": "iridium-33-debris",
        "lat": -19.554054495368852,
        "lon": -91.16921845978639,
        "alt_km": 796.6096730286672,
        "timestamp": "2025-12-25T19:00:39.735888+00:00",
        "meta_object_name": "IRIDIUM 33 DEB",
        "meta_object_id": "1997-051AK",
        "meta_epoch": "2025-12-25T00:08:02.252832",
        "meta_mean_motion": 14.25311588,
        "meta_eccentricity": 0.01152694,
        "meta_inclination": 86.2996,
        "meta_ra_of_asc_node": 87.8465,
        "meta_arg_of_pericenter": 122.5126,
        "meta_mean_anomaly": 2.3376,
        "meta_ephemeris_type": 0,
        "meta_classification_type": "U",
        "meta_norad_cat_id": 33866,
        "meta_element_set_no": 999,
        "meta_rev_at_epoch": 86985,
        "meta_bstar": 0.00058593776,
        "meta_mean_motion_dot": 1.498e-05,
        "meta_mean_motion_ddot": 0,
        "tle_line1": "1 33866U 97051AK  25359.00558163  .00001498  00000+0  58594-3 0  9995",
        "tle_line2": "2 33866  86.2996  87.8465 0115269 122.5126   2.3376 14.25311588869854"
      },
      "geometry": {
        "type": "Point",
        "coordinates": [
          -91.16921845978639,
          -19.554054495368852
        ]
      }
    },
    {
      "type": "Feature",
      "properties": {
        "norad_id": 33870,
        "name": "IRIDIUM 33 DEB",
        "group": "iridium-33-debris",
        "lat": -3.2150153525235137,
        "lon": -127.13047635715903,
        "alt_km": 731.3646212727317,
        "timestamp": "2025-12-25T19:00:39.735899+00:00",
        "meta_object_name": "IRIDIUM 33 DEB",
        "meta_object_id": "1997-051AP",
        "meta_epoch": "2025-12-25T05:11:01.966272",
        "meta_mean_motion": 14.45911631,
        "meta_eccentricity": 0.00226539,
        "meta_inclination": 86.3733,
        "meta_ra_of_asc_node": 52.9124,
        "meta_arg_of_pericenter": 138.5968,
        "meta_mean_anomaly": 287.3012,
        "meta_ephemeris_type": 0,
        "meta_classification_type": "U",
        "meta_norad_cat_id": 33870,
        "meta_element_set_no": 999,
        "meta_rev_at_epoch": 88317,
        "meta_bstar": 0.00070586074,
        "meta_mean_motion_dot": 2.536e-05,
        "meta_mean_motion_ddot": 0,
        "tle_line1": "1 33870U 97051AP  25359.21599498  .00002536  00000+0  70586-3 0  9998",
        "tle_line2": "2 33870  86.3733  52.9124 0022653 138.5968 287.3012 14.45911631883179"
      },
      "geometry": {
        "type": "Point",
        "coordinates": [
          -127.13047635715903,
          -3.2150153525235137
        ]
      }
    },
    {
      "type": "Feature",
      "properties": {
        "norad_id": 33881,
        "name": "IRIDIUM 33 DEB",
        "group": "iridium-33-debris",
        "lat": -18.830716888900227,
        "lon": -77.69567415041229,
        "alt_km": 691.1175111740868,
        "timestamp": "2025-12-25T19:00:39.735909+00:00",
        "meta_object_name": "IRIDIUM 33 DEB",
        "meta_object_id": "1997-051BA",
        "meta_epoch": "2025-12-24T19:37:00.349824",
        "meta_mean_motion": 14.5678795,
        "meta_eccentricity": 0.00611156,
        "meta_inclination": 86.3859,
        "meta_ra_of_asc_node": 101.4931,
        "meta_arg_of_pericenter": 135.6602,
        "meta_mean_anomaly": 353.6404,
        "meta_ephemeris_type": 0,
        "meta_classification_type": "U",
        "meta_norad_cat_id": 33881,
        "meta_element_set_no": 999,
        "meta_rev_at_epoch": 87676,
        "meta_bstar": 0.0022055938,
        "meta_mean_motion_dot": 0.0001015,
        "meta_mean_motion_ddot": 0,
        "tle_line1": "1 33881U 97051BA  25358.81736516  .00010150  00000+0  22056-2 0  9998",
        "tle_line2": "2 33881  86.3859 101.4931 0061115 135.6602 353.6404 14.56787950876761"
      },
      "geometry": {
        "type": "Point",
        "coordinates": [
          -77.69567415041229,
          -18.830716888900227
        ]
      }
    },
    {
      "type": "Feature",
      "properties": {
        "norad_id": 33884,
        "name": "IRIDIUM 33 DEB",
        "group": "iridium-33-debris",
        "lat": 43.664422323429086,
        "lon": 7.3991493950906095,
        "alt_km": 637.1889012418369,
        "timestamp": "2025-12-25T19:00:39.735920+00:00",
        "meta_object_name": "IRIDIUM 33 DEB",
        "meta_object_id": "1997-051BD",
        "meta_epoch": "2025-12-25T01:10:47.472384",
        "meta_mean_motion": 14.77671167,
        "meta_eccentricity": 0.00088209,
        "meta_inclination": 86.3695,
        "meta_ra_of_asc_node": 4.2604,
        "meta_arg_of_pericenter": 274.8294,
        "meta_mean_anomaly": 139.2318,
        "meta_ephemeris_type": 0,
        "meta_classification_type": "U",
        "meta_norad_cat_id": 33884,
        "meta_element_set_no": 999,
        "meta_rev_at_epoch": 89029,
        "meta_bstar": 0.0016802429,
        "meta_mean_motion_dot": 0.00012067,
        "meta_mean_motion_ddot": 0,
        "tle_line1": "1 33884U 97051BD  25359.04916056  .00012067  00000+0  16802-2 0  9997",
        "tle_line2": "2 33884  86.3695   4.2604 0008820 274.8294 139.2318 14.77671167890297"
      },
      "geometry": {
        "type": "Point",
        "coordinates": [
          7.3991493950906095,
          43.664422323429086
        ]
      }
    },
    {
      "type": "Feature",
      "properties": {
        "norad_id": 33886,
        "name": "IRIDIUM 33 DEB",
        "group": "iridium-33-debris",
        "lat": -2.688820980263146,
        "lon": -118.09524800383312,
        "alt_km": 765.5224146531464,
        "timestamp": "2025-12-25T19:00:39.735930+00:00",
        "meta_object_name": "IRIDIUM 33 DEB",
        "meta_object_id": "1997-051BF",
        "meta_epoch": "2025-12-25T03:12:23.130720",
        "meta_mean_motion": 14.36065835,
        "meta_eccentricity": 0.00134898,
        "meta_inclination": 86.3819,
        "meta_ra_of_asc_node": 62.0117,
        "meta_arg_of_pericenter": 197.7345,
        "meta_mean_anomaly": 182.5588,
        "meta_ephemeris_type": 0,
        "meta_classification_type": "U",
        "meta_norad_cat_id": 33886,
        "meta_element_set_no": 999,
        "meta_rev_at_epoch": 88230,
        "meta_bstar": 0.00018625376,
        "meta_mean_motion_dot": 5.62e-06,
        "meta_mean_motion_ddot": 0,
        "tle_line1": "1 33886U 97051BF  25359.13360105  .00000562  00000+0  18625-3 0  9990",
        "tle_line2": "2 33886  86.3819  62.0117 0013489 197.7345 182.5588 14.36065835882302"
      },
      "geometry": {
        "type": "Point",
        "coordinates": [
          -118.09524800383312,
          -2.688820980263146
        ]
      }
    }
  ]
}